
# Worst residual: 114.44 km
# MJD 60343.000000 (2024 Feb  3  0:00)
A10Y8MP
1 79956U 23999ZZF 24034.49919926  .00000000  00000-0  00000-0 0 22232
2 79956 035.4107 334.0273 7042579 313.2954 048.0233 00.88058831    02

# Worst residual: 120.97 km
# MJD 60344.000000 (2024 Feb  4  0:00)
A10Y8MP
1 79956U 23999ZZF 24035.49919926  .00000000  00000-0  00000-0 0 22233
2 79956 035.3729 334.0558 7013906 313.8754 002.7215 00.87971058    04

# Worst residual: 129.10 km
# MJD 60345.000000 (2024 Feb  5  0:00)
A10Y8MP
1 79956U 23999ZZF 24036.49919926  .00000000  00000-0  00000-0 0 22234
2 79956 035.3378 334.0904 6986497 314.4133 317.3972 00.87714436    00

# Worst residual: 131.34 km
# MJD 60346.000000 (2024 Feb  6  0:00)
A10Y8MP
1 79956U 23999ZZF 24037.49919926  .00000000  00000-0  00000-0 0 22235
2 79956 035.3059 334.1231 6951968 314.9266 272.1085 00.87482765    07

# Worst residual: 69.94 km
# MJD 60347.000000 (2024 Feb  7  0:00)
A10Y8MP
1 79956U 23999ZZF 24038.49919926  .00000000  00000-0  00000-0 0 22236
2 79956 035.2737 334.1535 6913322 315.5033 226.6954 00.87343425    05

# Worst residual: 85.59 km
# MJD 60348.000000 (2024 Feb  8  0:00)
A10Y8MP
1 79956U 23999ZZF 24039.49919926  .00000000  00000-0  00000-0 0 22237
2 79956 035.2378 334.1850 6885838 316.1215 181.1606 00.87353084    06

# Worst residual: 154.57 km
# MJD 60349.000000 (2024 Feb  9  0:00)
A10Y8MP
1 79956U 23999ZZF 24040.49919926  .00000000  00000-0  00000-0 0 22239
2 79956 035.1980 334.2155 6871470 316.6755 135.5673 00.87527396    00

# Worst residual: 175.98 km
# MJD 60350.000000 (2024 Feb 10  0:00)
A10Y8MP
1 79956U 23999ZZF 24041.49919926  .00000000  00000-0  00000-0 0 22230
2 79956 035.1496 334.2563 6844081 317.1670 089.8818 00.87726578    00

# Worst residual: 117.14 km
# MJD 60351.000000 (2024 Feb 11  0:00)
A10Y8MP
1 79956U 23999ZZF 24042.49919926  .00000000  00000-0  00000-0 0 22231
2 79956 035.1010 334.2859 6804807 317.7482 043.9032 00.87860722    08

# Worst residual: 136.78 km
# MJD 60352.000000 (2024 Feb 12  0:00)
A10Y8MP
1 79956U 23999ZZF 24043.49919926  .00000000  00000-0  00000-0 0 22232
2 79956 035.0427 334.3434 6770244 318.3623 357.7795 00.87769762    04

# Worst residual: 141.11 km
# MJD 60353.000000 (2024 Feb 13  0:00)
A10Y8MP
1 79956U 23999ZZF 24044.49919926  .00000000  00000-0  00000-0 0 22233
2 79956 034.9877 334.4037 6736876 318.9103 311.8690 00.87528164    07

# Worst residual: 120.59 km
# MJD 60354.000000 (2024 Feb 14  0:00)
A10Y8MP
1 79956U 23999ZZF 24045.49919926  .00000000  00000-0  00000-0 0 22234
2 79956 034.9331 334.4587 6695454 319.4405 266.1621 00.87337114    08

# Worst residual: 82.65 km
# MJD 60355.000000 (2024 Feb 15  0:00)
A10Y8MP
1 79956U 23999ZZF 24046.49919926  .00000000  00000-0  00000-0 0 22235
2 79956 034.8898 334.5063 6652075 320.0526 220.4382 00.87267482    06

# Worst residual: 92.92 km
# MJD 60356.000000 (2024 Feb 16  0:00)
A10Y8MP
1 79956U 23999ZZF 24047.49919926  .00000000  00000-0  00000-0 0 22236
2 79956 034.8346 334.5510 6621811 320.6949 174.7123 00.87342003    07

# Worst residual: 169.07 km
# MJD 60357.000000 (2024 Feb 17  0:00)
A10Y8MP
1 79956U 23999ZZF 24048.49919926  .00000000  00000-0  00000-0 0 22237
2 79956 034.7784 334.5986 6602310 321.2383 129.0532 00.87562194    03

# Worst residual: 171.81 km
# MJD 60358.000000 (2024 Feb 18  0:00)
A10Y8MP
1 79956U 23999ZZF 24049.49919926  .00000000  00000-0  00000-0 0 22238
2 79956 034.7215 334.6488 6568117 321.7494 083.3211 00.87762173    09

# Worst residual: 107.29 km
# MJD 60359.000000 (2024 Feb 19  0:00)
A10Y8MP
1 79956U 23999ZZF 24050.49919926  .00000000  00000-0  00000-0 0 22230
2 79956 034.6496 334.6931 6525362 322.3533 037.3188 00.87868663    01

# Worst residual: 136.65 km
# MJD 60360.000000 (2024 Feb 20  0:00)
A10Y8MP
1 79956U 23999ZZF 24051.49919926  .00000000  00000-0  00000-0 0 22231
2 79956 034.5764 334.7632 6488217 322.9826 351.2196 00.87733624    00

# Worst residual: 139.16 km
# MJD 60361.000000 (2024 Feb 21  0:00)
A10Y8MP
1 79956U 23999ZZF 24052.49919926  .00000000  00000-0  00000-0 0 22232
2 79956 034.5089 334.8356 6450657 323.5366 305.3640 00.87489461    08

# Worst residual: 96.39 km
# MJD 60362.000000 (2024 Feb 22  0:00)
A10Y8MP
1 79956U 23999ZZF 24053.49919926  .00000000  00000-0  00000-0 0 22233
2 79956 034.4506 334.8986 6403134 324.0874 259.6877 00.87311141    00

# Worst residual: 84.88 km
# MJD 60363.000000 (2024 Feb 23  0:00)
A10Y8MP
1 79956U 23999ZZF 24054.49919926  .00000000  00000-0  00000-0 0 22234
2 79956 034.3971 334.9465 6357753 324.7546 213.9583 00.87275147    08

# Worst residual: 106.37 km
# MJD 60364.000000 (2024 Feb 24  0:00)
A10Y8MP
1 79956U 23999ZZF 24055.49919926  .00000000  00000-0  00000-0 0 22235
2 79956 034.3184 335.0155 6323173 325.4059 168.2302 00.87377301    04

# Worst residual: 177.57 km
# MJD 60365.000000 (2024 Feb 25  0:00)
A10Y8MP
1 79956U 23999ZZF 24056.49919926  .00000000  00000-0  00000-0 0 22236
2 79956 034.2463 335.0784 6297946 325.9471 122.5808 00.87608994    01

# Worst residual: 171.16 km
# MJD 60366.000000 (2024 Feb 26  0:00)
A10Y8MP
1 79956U 23999ZZF 24057.49919926  .00000000  00000-0  00000-0 0 22237
2 79956 034.1779 335.1052 6255895 326.4912 076.8466 00.87814433    00

# Worst residual: 93.98 km
# MJD 60367.000000 (2024 Feb 27  0:00)
A10Y8MP
1 79956U 23999ZZF 24058.49919926  .00000000  00000-0  00000-0 0 22238
2 79956 034.0943 335.1657 6207678 327.1267 030.8232 00.87868561    02
